[{"OBJECT_NAME":"KUIPER-00254","OBJECT_ID":"2026-072N","EPOCH":"2026-04-28T19:35:34.586592","MEAN_MOTION":15.37182212,"ECCENTRICITY":0.0007302,"INCLINATION":51.8749,"RA_OF_ASC_NODE":55.7753,"ARG_OF_PERICENTER":190.5298,"MEAN_ANOMALY":169.5537,"EPHEMERIS_TYPE":0,"CLASSIFICATION_TYPE":"U","NORAD_CAT_ID":68585,"ELEMENT_SET_NO":999,"REV_AT_EPOCH":378,"BSTAR":0.00063111,"MEAN_MOTION_DOT":0.00023033,"MEAN_MOTION_DDOT":0},{"OBJECT_NAME":"KUIPER-00263","OBJECT_ID":"2026-072P","EPOCH":"2026-04-28T20:32:04.939008","MEAN_MOTION":15.38796323,"ECCENTRICITY":0.0002129,"INCLINATION":51.8781,"RA_OF_ASC_NODE":55.2939,"ARG_OF_PERICENTER":117.0708,"MEAN_ANOMALY":243.0497,"EPHEMERIS_TYPE":0,"CLASSIFICATION_TYPE":"U","NORAD_CAT_ID":68586,"ELEMENT_SET_NO":999,"REV_AT_EPOCH":379,"BSTAR":0.00070028,"MEAN_MOTION_DOT":0.00026991,"MEAN_MOTION_DDOT":0},{"OBJECT_NAME":"KUIPER-00269","OBJECT_ID":"2026-072Q","EPOCH":"2026-04-28T20:52:06.539232","MEAN_MOTION":15.37915543,"ECCENTRICITY":0.0004577,"INCLINATION":51.8761,"RA_OF_ASC_NODE":55.3832,"ARG_OF_PERICENTER":172.4932,"MEAN_ANOMALY":187.6124,"EPHEMERIS_TYPE":0,"CLASSIFICATION_TYPE":"U","NORAD_CAT_ID":68587,"ELEMENT_SET_NO":999,"REV_AT_EPOCH":379,"BSTAR":0.00066668,"MEAN_MOTION_DOT":0.0002494,"MEAN_MOTION_DDOT":0},{"OBJECT_NAME":"KUIPER-00272","OBJECT_ID":"2026-072R","EPOCH":"2026-04-28T20:00:01.000224","MEAN_MOTION":15.29523278,"ECCENTRICITY":0.0005612,"INCLINATION":51.8783,"RA_OF_ASC_NODE":55.776,"ARG_OF_PERICENTER":182.6131,"MEAN_ANOMALY":217.9411,"EPHEMERIS_TYPE":0,"CLASSIFICATION_TYPE":"U","NORAD_CAT_ID":68588,"ELEMENT_SET_NO":999,"REV_AT_EPOCH":331,"BSTAR":0.0010185,"MEAN_MOTION_DOT":0.00029337,"MEAN_MOTION_DDOT":0},{"OBJECT_NAME":"KUIPER-00285","OBJECT_ID":"2026-072S","EPOCH":"2026-04-28T19:25:53.988096","MEAN_MOTION":15.3767232,"ECCENTRICITY":0.0006228,"INCLINATION":51.8752,"RA_OF_ASC_NODE":55.7321,"ARG_OF_PERICENTER":186.943,"MEAN_ANOMALY":173.1471,"EPHEMERIS_TYPE":0,"CLASSIFICATION_TYPE":"U","NORAD_CAT_ID":68589,"ELEMENT_SET_NO":999,"REV_AT_EPOCH":378,"BSTAR":0.00070886,"MEAN_MOTION_DOT":0.00026344,"MEAN_MOTION_DDOT":0},{"OBJECT_NAME":"KUIPER-00286","OBJECT_ID":"2026-072T","EPOCH":"2026-04-28T13:02:25.797696","MEAN_MOTION":15.37950236,"ECCENTRICITY":0.0004428,"INCLINATION":51.8756,"RA_OF_ASC_NODE":56.9486,"ARG_OF_PERICENTER":176.0021,"MEAN_ANOMALY":184.1002,"EPHEMERIS_TYPE":0,"CLASSIFICATION_TYPE":"U","NORAD_CAT_ID":68590,"ELEMENT_SET_NO":999,"REV_AT_EPOCH":374,"BSTAR":0.00074671,"MEAN_MOTION_DOT":0.00028025,"MEAN_MOTION_DDOT":0},{"OBJECT_NAME":"KUIPER-00289","OBJECT_ID":"2026-072U","EPOCH":"2026-04-28T05:53:21.700320","MEAN_MOTION":15.36313465,"ECCENTRICITY":0.0010618,"INCLINATION":51.8665,"RA_OF_ASC_NODE":58.6845,"ARG_OF_PERICENTER":204.8587,"MEAN_ANOMALY":155.1889,"EPHEMERIS_TYPE":0,"CLASSIFICATION_TYPE":"U","NORAD_CAT_ID":68591,"ELEMENT_SET_NO":999,"REV_AT_EPOCH":369,"BSTAR":0.00078526,"MEAN_MOTION_DOT":0.00027997,"MEAN_MOTION_DDOT":0},{"OBJECT_NAME":"KUIPER-00290","OBJECT_ID":"2026-072V","EPOCH":"2026-04-28T07:25:59.130624","MEAN_MOTION":15.36324682,"ECCENTRICITY":0.0010741,"INCLINATION":51.8651,"RA_OF_ASC_NODE":58.3642,"ARG_OF_PERICENTER":201.6899,"MEAN_ANOMALY":158.3634,"EPHEMERIS_TYPE":0,"CLASSIFICATION_TYPE":"U","NORAD_CAT_ID":68592,"ELEMENT_SET_NO":999,"REV_AT_EPOCH":370,"BSTAR":0.00072418,"MEAN_MOTION_DOT":0.00025791,"MEAN_MOTION_DDOT":0},{"OBJECT_NAME":"KUIPER-00293","OBJECT_ID":"2026-072W","EPOCH":"2026-04-28T02:54:27.321120","MEAN_MOTION":15.35602369,"ECCENTRICITY":0.0010885,"INCLINATION":51.864,"RA_OF_ASC_NODE":59.3478,"ARG_OF_PERICENTER":208.2318,"MEAN_ANOMALY":151.8079,"EPHEMERIS_TYPE":0,"CLASSIFICATION_TYPE":"U","NORAD_CAT_ID":68593,"ELEMENT_SET_NO":999,"REV_AT_EPOCH":367,"BSTAR":0.00028132234,"MEAN_MOTION_DOT":9.528e-5,"MEAN_MOTION_DDOT":0},{"OBJECT_NAME":"KUIPER-00294","OBJECT_ID":"2026-072X","EPOCH":"2026-04-28T19:50:05.159040","MEAN_MOTION":15.36594015,"ECCENTRICITY":0.000951,"INCLINATION":51.8678,"RA_OF_ASC_NODE":55.8331,"ARG_OF_PERICENTER":198.7339,"MEAN_ANOMALY":161.3298,"EPHEMERIS_TYPE":0,"CLASSIFICATION_TYPE":"U","NORAD_CAT_ID":68594,"ELEMENT_SET_NO":999,"REV_AT_EPOCH":378,"BSTAR":0.00098745,"MEAN_MOTION_DOT":0.00035653,"MEAN_MOTION_DDOT":0},{"OBJECT_NAME":"KUIPER-00296","OBJECT_ID":"2026-072Y","EPOCH":"2026-04-28T13:26:46.536576","MEAN_MOTION":15.36977109,"ECCENTRICITY":0.0008092,"INCLINATION":51.8712,"RA_OF_ASC_NODE":57.0554,"ARG_OF_PERICENTER":196.0949,"MEAN_ANOMALY":163.9781,"EPHEMERIS_TYPE":0,"CLASSIFICATION_TYPE":"U","NORAD_CAT_ID":68595,"ELEMENT_SET_NO":999,"REV_AT_EPOCH":374,"BSTAR":0.00069308,"MEAN_MOTION_DOT":0.00025175,"MEAN_MOTION_DDOT":0},{"OBJECT_NAME":"KUIPER-00297","OBJECT_ID":"2026-072Z","EPOCH":"2026-04-28T05:50:35.191104","MEAN_MOTION":15.36230388,"ECCENTRICITY":0.0009997,"INCLINATION":51.8638,"RA_OF_ASC_NODE":58.6679,"ARG_OF_PERICENTER":199.791,"MEAN_ANOMALY":160.2689,"EPHEMERIS_TYPE":0,"CLASSIFICATION_TYPE":"U","NORAD_CAT_ID":68596,"ELEMENT_SET_NO":999,"REV_AT_EPOCH":369,"BSTAR":0.0007526,"MEAN_MOTION_DOT":0.00026734,"MEAN_MOTION_DDOT":0},{"OBJECT_NAME":"KUIPER-00300","OBJECT_ID":"2026-072AA","EPOCH":"2026-04-28T19:36:49.008096","MEAN_MOTION":15.37185065,"ECCENTRICITY":0.0007895,"INCLINATION":51.871,"RA_OF_ASC_NODE":55.7746,"ARG_OF_PERICENTER":196.2081,"MEAN_ANOMALY":163.8654,"EPHEMERIS_TYPE":0,"CLASSIFICATION_TYPE":"U","NORAD_CAT_ID":68597,"ELEMENT_SET_NO":999,"REV_AT_EPOCH":378,"BSTAR":0.00066894,"MEAN_MOTION_DOT":0.00024447,"MEAN_MOTION_DDOT":0},{"OBJECT_NAME":"KUIPER-00301","OBJECT_ID":"2026-072AB","EPOCH":"2026-04-28T13:29:40.304256","MEAN_MOTION":15.3684854,"ECCENTRICITY":0.0008572,"INCLINATION":51.8674,"RA_OF_ASC_NODE":57.0599,"ARG_OF_PERICENTER":202.9706,"MEAN_ANOMALY":157.0898,"EPHEMERIS_TYPE":0,"CLASSIFICATION_TYPE":"U","NORAD_CAT_ID":68598,"ELEMENT_SET_NO":999,"REV_AT_EPOCH":374,"BSTAR":0.00080077,"MEAN_MOTION_DOT":0.00029045,"MEAN_MOTION_DDOT":0},{"OBJECT_NAME":"KUIPER-00304","OBJECT_ID":"2026-072AC","EPOCH":"2026-04-28T19:46:17.868288","MEAN_MOTION":15.36758807,"ECCENTRICITY":0.0009619,"INCLINATION":51.8679,"RA_OF_ASC_NODE":55.8132,"ARG_OF_PERICENTER":199.5325,"MEAN_ANOMALY":160.5294,"EPHEMERIS_TYPE":0,"CLASSIFICATION_TYPE":"U","NORAD_CAT_ID":68599,"ELEMENT_SET_NO":999,"REV_AT_EPOCH":378,"BSTAR":0.00066745,"MEAN_MOTION_DOT":0.00024064,"MEAN_MOTION_DDOT":0},{"OBJECT_NAME":"KUIPER-00317","OBJECT_ID":"2026-072AD","EPOCH":"2026-04-28T13:25:32.604960","MEAN_MOTION":15.36916992,"ECCENTRICITY":0.0008807,"INCLINATION":51.8701,"RA_OF_ASC_NODE":57.0475,"ARG_OF_PERICENTER":189.0073,"MEAN_ANOMALY":171.0756,"EPHEMERIS_TYPE":0,"CLASSIFICATION_TYPE":"U","NORAD_CAT_ID":68600,"ELEMENT_SET_NO":999,"REV_AT_EPOCH":374,"BSTAR":0.00071791,"MEAN_MOTION_DOT":0.00026049,"MEAN_MOTION_DDOT":0},{"OBJECT_NAME":"KUIPER-00320","OBJECT_ID":"2026-072AE","EPOCH":"2026-04-28T02:47:49.182144","MEAN_MOTION":15.36191621,"ECCENTRICITY":0.00110261,"INCLINATION":51.8613,"RA_OF_ASC_NODE":59.3119,"ARG_OF_PERICENTER":202.1249,"MEAN_ANOMALY":157.9262,"EPHEMERIS_TYPE":0,"CLASSIFICATION_TYPE":"U","NORAD_CAT_ID":68601,"ELEMENT_SET_NO":999,"REV_AT_EPOCH":367,"BSTAR":0.0010408779,"MEAN_MOTION_DOT":0.00037141,"MEAN_MOTION_DDOT":0}]
