KUIPER-00254            
1 68585U 26072N   26118.81637253  .00023033  00000+0  63111-3 0  9997
2 68585  51.8749  55.7753 0007302 190.5298 169.5537 15.37182212  3782
KUIPER-00263            
1 68586U 26072P   26118.85561272  .00026991  00000+0  70028-3 0  9990
2 68586  51.8781  55.2939 0002129 117.0708 243.0497 15.38796323  3791
KUIPER-00269            
1 68587U 26072Q   26118.86952013  .00024940  00000+0  66668-3 0  9996
2 68587  51.8761  55.3832 0004577 172.4932 187.6124 15.37915543  3792
KUIPER-00272            
1 68588U 26072R   26118.83334491  .00029337  00000+0  10185-2 0  9995
2 68588  51.8783  55.7760 0005612 182.6131 217.9411 15.29523278  3311
KUIPER-00285            
1 68589U 26072S   26118.80965264  .00026344  00000+0  70886-3 0  9991
2 68589  51.8752  55.7321 0006228 186.9430 173.1471 15.37672320  3786
KUIPER-00286            
1 68590U 26072T   26118.54335414  .00028025  00000+0  74671-3 0  9996
2 68590  51.8756  56.9486 0004428 176.0021 184.1002 15.37950236  3746
KUIPER-00289            
1 68591U 26072U   26118.24539005  .00027997  00000+0  78526-3 0  9996
2 68591  51.8665  58.6845 0010618 204.8587 155.1889 15.36313465  3690
KUIPER-00290            
1 68592U 26072V   26118.30971216  .00025791  00000+0  72418-3 0  9992
2 68592  51.8651  58.3642 0010741 201.6899 158.3634 15.36324682  3704
KUIPER-00293            
1 68593U 26072W   26118.12114955  .00009528  00000+0  28132-3 0  9996
2 68593  51.8640  59.3478 0010885 208.2318 151.8079 15.35602369  3676
KUIPER-00294            
1 68594U 26072X   26118.82644860  .00035653  00000+0  98745-3 0  9992
2 68594  51.8678  55.8331 0009510 198.7339 161.3298 15.36594015  3786
KUIPER-00296            
1 68595U 26072Y   26118.56026084  .00025175  00000+0  69308-3 0  9997
2 68595  51.8712  57.0554 0008092 196.0949 163.9781 15.36977109  3749
KUIPER-00297            
1 68596U 26072Z   26118.24346286  .00026734  00000+0  75260-3 0  9998
2 68596  51.8638  58.6679 0009997 199.7910 160.2689 15.36230388  3697
KUIPER-00300            
1 68597U 26072AA  26118.81723389  .00024447  00000+0  66894-3 0  9997
2 68597  51.8710  55.7746 0007895 196.2081 163.8654 15.37185065  3781
KUIPER-00301            
1 68598U 26072AB  26118.56227204  .00029045  00000+0  80077-3 0  9993
2 68598  51.8674  57.0599 0008572 202.9706 157.0898 15.36848540  3748
KUIPER-00304            
1 68599U 26072AC  26118.82381792  .00024064  00000+0  66745-3 0  9998
2 68599  51.8679  55.8132 0009619 199.5325 160.5294 15.36758807  3783
KUIPER-00317            
1 68600U 26072AD  26118.55940515  .00026049  00000+0  71791-3 0  9997
2 68600  51.8701  57.0475 0008807 189.0073 171.0756 15.36916992  3745
KUIPER-00320            
1 68601U 26072AE  26118.11654146  .00037141  00000+0  10409-2 0  9995
2 68601  51.8613  59.3119 0011026 202.1249 157.9262 15.36191621  3678
